LEMUR-2-DEMBITZ         
1 42842U 17042T   26068.47492167  .00020231  00000+0  76561-3 0  9991
2 42842  97.3807 250.9241 0006961  17.1421 343.0051 15.26947128473114
STARLINK-31861          
1 59906U 24100X   26068.19621304 -.00000888  00000+0 -22781-4 0  9993
2 59906  43.0017 121.0430 0000759 272.0298  88.0466 15.27559822101154
